{
  "type": "FeatureCollection",
  "features": [
    {
      "type": "Feature",
      "properties": {
        "norad_id": 41890,
        "name": "CYGFM07",
        "group": "weather",
        "lat": -32.86240150000282,
        "lon": -22.250955842692065,
        "alt_km": 424.76188060643653,
        "timestamp": "2025-12-02T06:27:52.663941+00:00",
        "meta_object_name": "CYGFM07",
        "meta_object_id": "2016-078G",
        "meta_epoch": "2025-12-01T17:00:51.429312",
        "meta_mean_motion": 15.49317127,
        "meta_eccentricity": 0.0008846,
        "meta_inclination": 34.9465,
        "meta_ra_of_asc_node": 93.7396,
        "meta_arg_of_pericenter": 112.6785,
        "meta_mean_anomaly": 247.4873,
        "meta_ephemeris_type": 0,
        "meta_classification_type": "U",
        "meta_norad_cat_id": 41890,
        "meta_element_set_no": 999,
        "meta_rev_at_epoch": 49824,
        "meta_bstar": 0.00041134,
        "meta_mean_motion_dot": 0.00023267,
        "meta_mean_motion_ddot": 0,
        "tle_line1": "1 41890U 16078G   25335.70892858  .00023267  00000+0  41134-3 0  9994",
        "tle_line2": "2 41890  34.9465  93.7396 0008846 112.6785 247.4873 15.49317127498240"
      },
      "geometry": {
        "type": "Point",
        "coordinates": [
          -22.250955842692065,
          -32.86240150000282
        ]
      }
    },
    {
      "type": "Feature",
      "properties": {
        "norad_id": 41891,
        "name": "CYGFM03",
        "group": "weather",
        "lat": 34.921797553632665,
        "lon": -178.3984266162994,
        "alt_km": 407.05004148215085,
        "timestamp": "2025-12-02T06:27:52.663960+00:00",
        "meta_object_name": "CYGFM03",
        "meta_object_id": "2016-078H",
        "meta_epoch": "2025-12-01T17:42:27.476928",
        "meta_mean_motion": 15.49223321,
        "meta_eccentricity": 0.0008246,
        "meta_inclination": 34.9416,
        "meta_ra_of_asc_node": 95.4618,
        "meta_arg_of_pericenter": 98.9821,
        "meta_mean_anomaly": 261.1834,
        "meta_ephemeris_type": 0,
        "meta_classification_type": "U",
        "meta_norad_cat_id": 41891,
        "meta_element_set_no": 999,
        "meta_rev_at_epoch": 49822,
        "meta_bstar": 0.00041404,
        "meta_mean_motion_dot": 0.00023338,
        "meta_mean_motion_ddot": 0,
        "tle_line1": "1 41891U 16078H   25335.73781802  .00023338  00000+0  41404-3 0  9993",
        "tle_line2": "2 41891  34.9416  95.4618 0008246  98.9821 261.1834 15.49223321498224"
      },
      "geometry": {
        "type": "Point",
        "coordinates": [
          -178.3984266162994,
          34.921797553632665
        ]
      }
    },
    {
      "type": "Feature",
      "properties": {
        "norad_id": 43010,
        "name": "FENGYUN 3D",
        "group": "weather",
        "lat": 14.813878187315133,
        "lon": 124.82241753649942,
        "alt_km": 827.0700195765958,
        "timestamp": "2025-12-02T06:27:52.663971+00:00",
        "meta_object_name": "FENGYUN 3D",
        "meta_object_id": "2017-072A",
        "meta_epoch": "2025-12-01T21:13:59.032992",
        "meta_mean_motion": 14.19678567,
        "meta_eccentricity": 5.46e-05,
        "meta_inclination": 98.9878,
        "meta_ra_of_asc_node": 302.0332,
        "meta_arg_of_pericenter": 231.6248,
        "meta_mean_anomaly": 128.4878,
        "meta_ephemeris_type": 0,
        "meta_classification_type": "U",
        "meta_norad_cat_id": 43010,
        "meta_element_set_no": 999,
        "meta_rev_at_epoch": 41699,
        "meta_bstar": 8.6725e-05,
        "meta_mean_motion_dot": 1.37e-06,
        "meta_mean_motion_ddot": 0,
        "tle_line1": "1 43010U 17072A   25335.88471103  .00000137  00000+0  86725-4 0  9997",
        "tle_line2": "2 43010  98.9878 302.0332 0000546 231.6248 128.4878 14.19678567416994"
      },
      "geometry": {
        "type": "Point",
        "coordinates": [
          124.82241753649942,
          14.813878187315133
        ]
      }
    },
    {
      "type": "Feature",
      "properties": {
        "norad_id": 43013,
        "name": "NOAA 20 (JPSS-1)",
        "group": "weather",
        "lat": -36.23331942520247,
        "lon": -80.83240150071099,
        "alt_km": 834.334577902855,
        "timestamp": "2025-12-02T06:27:52.663982+00:00",
        "meta_object_name": "NOAA 20 (JPSS-1)",
        "meta_object_id": "2017-073A",
        "meta_epoch": "2025-12-01T20:29:14.534880",
        "meta_mean_motion": 14.19520949,
        "meta_eccentricity": 0.0002032,
        "meta_inclination": 98.7582,
        "meta_ra_of_asc_node": 272.2703,
        "meta_arg_of_pericenter": 102.8001,
        "meta_mean_anomaly": 257.3402,
        "meta_ephemeris_type": 0,
        "meta_classification_type": "U",
        "meta_norad_cat_id": 43013,
        "meta_element_set_no": 999,
        "meta_rev_at_epoch": 41647,
        "meta_bstar": 7.5416e-05,
        "meta_mean_motion_dot": 1.15e-06,
        "meta_mean_motion_ddot": 0,
        "tle_line1": "1 43013U 17073A   25335.85364045  .00000115  00000+0  75416-4 0  9995",
        "tle_line2": "2 43013  98.7582 272.2703 0002032 102.8001 257.3402 14.19520949416473"
      },
      "geometry": {
        "type": "Point",
        "coordinates": [
          -80.83240150071099,
          -36.23331942520247
        ]
      }
    },
    {
      "type": "Feature",
      "properties": {
        "norad_id": 43226,
        "name": "GOES 17",
        "group": "weather",
        "lat": -0.05886818645219674,
        "lon": 78.82205083274505,
        "alt_km": 35800.84855884445,
        "timestamp": "2025-12-02T06:27:52.663994+00:00",
        "meta_object_name": "GOES 17",
        "meta_object_id": "2018-022A",
        "meta_epoch": "2025-12-01T18:31:17.225760",
        "meta_mean_motion": 1.00270008,
        "meta_eccentricity": 0.000343,
        "meta_inclination": 0.4287,
        "meta_ra_of_asc_node": 89.3744,
        "meta_arg_of_pericenter": 180.8338,
        "meta_mean_anomaly": 348.9993,
        "meta_ephemeris_type": 0,
        "meta_classification_type": "U",
        "meta_norad_cat_id": 43226,
        "meta_element_set_no": 999,
        "meta_rev_at_epoch": 2844,
        "meta_bstar": 0,
        "meta_mean_motion_dot": -1.61e-06,
        "meta_mean_motion_ddot": 0,
        "tle_line1": "1 43226U 18022A   25335.77172715 -.00000161  00000+0  00000+0 0  9992",
        "tle_line2": "2 43226   0.4287  89.3744 0003430 180.8338 348.9993  1.00270008 28447"
      },
      "geometry": {
        "type": "Point",
        "coordinates": [
          78.82205083274505,
          -0.05886818645219674
        ]
      }
    },
    {
      "type": "Feature",
      "properties": {
        "norad_id": 43491,
        "name": "FENGYUN 2H",
        "group": "weather",
        "lat": 0.5768373032044173,
        "lon": -112.30427928777527,
        "alt_km": 35774.0842258212,
        "timestamp": "2025-12-02T06:27:52.664006+00:00",
        "meta_object_name": "FENGYUN 2H",
        "meta_object_id": "2018-050A",
        "meta_epoch": "2025-12-01T19:19:42.589056",
        "meta_mean_motion": 1.00271612,
        "meta_eccentricity": 0.000284,
        "meta_inclination": 2.5201,
        "meta_ra_of_asc_node": 81.4514,
        "meta_arg_of_pericenter": 161.0543,
        "meta_mean_anomaly": 197.6999,
        "meta_ephemeris_type": 0,
        "meta_classification_type": "U",
        "meta_norad_cat_id": 43491,
        "meta_element_set_no": 999,
        "meta_rev_at_epoch": 2745,
        "meta_bstar": 0,
        "meta_mean_motion_dot": -1.09e-06,
        "meta_mean_motion_ddot": 0,
        "tle_line1": "1 43491U 18050A   25335.80535404 -.00000109  00000+0  00000+0 0  9991",
        "tle_line2": "2 43491   2.5201  81.4514 0002840 161.0543 197.6999  1.00271612 27458"
      },
      "geometry": {
        "type": "Point",
        "coordinates": [
          -112.30427928777527,
          0.5768373032044173
        ]
      }
    },
    {
      "type": "Feature",
      "properties": {
        "norad_id": 43689,
        "name": "METOP-C",
        "group": "weather",
        "lat": 29.450360840087953,
        "lon": 29.241949228994947,
        "alt_km": 817.6535252576068,
        "timestamp": "2025-12-02T06:27:52.664019+00:00",
        "meta_object_name": "METOP-C",
        "meta_object_id": "2018-087A",
        "meta_epoch": "2025-12-01T18:29:58.783200",
        "meta_mean_motion": 14.21505019,
        "meta_eccentricity": 0.0001765,
        "meta_inclination": 98.6946,
        "meta_ra_of_asc_node": 33.7076,
        "meta_arg_of_pericenter": 60.1439,
        "meta_mean_anomaly": 299.9914,
        "meta_ephemeris_type": 0,
        "meta_classification_type": "U",
        "meta_norad_cat_id": 43689,
        "meta_element_set_no": 999,
        "meta_rev_at_epoch": 36678,
        "meta_bstar": 9.2328e-05,
        "meta_mean_motion_dot": 1.58e-06,
        "meta_mean_motion_ddot": 0,
        "tle_line1": "1 43689U 18087A   25335.77081925  .00000158  00000+0  92328-4 0  9992",
        "tle_line2": "2 43689  98.6946  33.7076 0001765  60.1439 299.9914 14.21505019366783"
      },
      "geometry": {
        "type": "Point",
        "coordinates": [
          29.241949228994947,
          29.450360840087953
        ]
      }
    }
  ]
}